#Pass ID: 20260127_175034_SUOMI NPP
#Satellite: SUOMI NPP
#Configuration: NPP
#almurnet v.1.7.20240730
#Start time: 2026-01-27 17:50:32

#Version: 2.2.20231116
#Station: X_Chapaevo_01
#Location: 129.39018 lon 61.66317 lat
#TLE: 1 37849U 11061A   26026.87508736  .00000176  00000+0  10464-3 0  9991
#TLE: 2 37849  98.7822 328.8221 0002127  43.3055 316.8288 14.19530452738397

#Time	Az	El	Level	Level2	SNR	BER	BlckErr	Temp	State	Recorded	gain1	gain2
#2026-01-27 17:50:32.293000	device inactive

#Closed at: 2026-01-27 17:50:33
#Recorded file [0 MB]: 